     2.100          NAVIGATION                              RINEX VERSION / TYPE
fic2rin                                 06/01/2015 00:14:51 PGM / RUN BY / DATE
                                                            END OF HEADER
25 15  5 31 20  0  0.0 -.349138863385D-04 -.397903932026D-11  .000000000000D+00
     .720000000000D+02 -.123781250000D+03  .421124684391D-08 -.227763043359D+01
    -.644661486149D-05  .464332324918D-02  .683404505253D-05  .515367972565D+04
     .720000000000D+05  .137835741043D-06  .213152809111D+01 -.353902578354D-07
     .978166334497D+00  .255312500000D+03  .732698087359D+00 -.799569019545D-08
    -.247153152064D-09  .100000000000D+01  .184700000000D+04  .000000000000D+00
     .240000000000D+01  .000000000000D+00  .558793544769D-08  .720000000000D+02
     .648060000000D+05  .400000000000D+01
26 15  5 31 20  0  0.0  .306772999465D-04 -.341060513165D-12  .000000000000D+00
     .570000000000D+02 -.127375000000D+03  .467483758289D-08  .216442079764D+01
    -.654533505440D-05  .321140047163D-03  .633671879768D-05  .515358207512D+04
     .720000000000D+05 -.931322574615D-08  .212887369940D+01 -.186264514923D-08
     .960282370175D+00  .258437500000D+03  .123211425023D+01 -.820569894316D-08
    -.300369654459D-09  .100000000000D+01  .184700000000D+04  .000000000000D+00
     .240000000000D+01  .000000000000D+00  .745058059692D-08  .570000000000D+02
     .648060000000D+05  .400000000000D+01
27 15  5 31 20  0  0.0  .759046524763D-04  .272848410532D-11  .000000000000D+00
     .630000000000D+02 -.267187500000D+02  .425303429881D-08  .172993273247D+01
    -.116415321827D-05  .247995136306D-02  .116713345051D-04  .515369781685D+04
     .720000000000D+05  .521540641785D-07 -.310791126306D+01  .141561031342D-06
     .967775512649D+00  .157968750000D+03  .223894774162D+00 -.779782481070D-08
     .362872257943D-09  .100000000000D+01  .184700000000D+04  .000000000000D+00
     .240000000000D+01  .000000000000D+00  .139698386192D-08  .630000000000D+02
     .648060000000D+05  .400000000000D+01
28 15  5 31 20  0  0.0  .443666242063D-03  .261479726760D-11  .000000000000D+00
     .290000000000D+02 -.121000000000D+03  .384444585089D-08  .251036381354D+01
    -.627525150776D-05  .195205931086D-01  .672787427902D-05  .515370000648D+04
     .720000000000D+05  .188127160072D-06  .220223957651D+01 -.191852450371D-06
     .988877024846D+00  .262093750000D+03 -.166399508670D+01 -.747031116845D-08
    -.348943106310D-09  .100000000000D+01  .184700000000D+04  .000000000000D+00
     .240000000000D+01  .000000000000D+00 -.111758708954D-07  .290000000000D+02
     .648060000000D+05  .400000000000D+01
29 15  5 31 20  0  0.0  .613897107542D-03  .227373675443D-11  .000000000000D+00
     .500000000000D+01 -.109687500000D+02  .406981238116D-08 -.198623404013D+01
    -.698491930962D-06  .124307139777D-02  .112522393465D-04  .515376105881D+04
     .720000000000D+05 -.875443220139D-07 -.305077900460D+01 -.186264514923D-08
     .973718127268D+00  .165562500000D+03 -.592710660527D+00 -.770603527301D-08
     .371444043564D-09  .100000000000D+01  .184700000000D+04  .000000000000D+00
     .240000000000D+01  .000000000000D+00 -.977888703346D-08  .500000000000D+01
     .648060000000D+05  .400000000000D+01
30 15  5 31 20  0  0.0 -.513098202646D-04  .602540239925D-11  .000000000000D+00
     .540000000000D+02  .315000000000D+02  .493841999073D-08 -.925032747556D+00
     .143796205521D-05  .143706111703D-02  .112690031528D-05  .515373547363D+04
     .720000000000D+05  .465661287308D-07  .115806383426D+01  .428408384323D-07
     .955819034911D+00  .352500000000D+03  .288379742569D+01 -.856392815055D-08
     .217866217860D-09  .100000000000D+01  .184700000000D+04  .000000000000D+00
     .240000000000D+01  .000000000000D+00  .325962901115D-08  .540000000000D+02
     .648060000000D+05  .400000000000D+01
31 15  5 31 20  0  0.0  .314305536449D-03 -.113686837722D-11  .000000000000D+00
     .106000000000D+03  .403437500000D+02  .464447917549D-08 -.123424465687D+01
     .180676579475D-05  .808642478660D-02  .141747295856D-05  .515378763008D+04
     .720000000000D+05 -.782310962677D-07  .111655250386D+01 -.111758708954D-06
     .974977897229D+00  .361906250000D+03 -.514193960048D+00 -.847463871700D-08
     .311798701953D-09  .100000000000D+01  .184700000000D+04  .000000000000D+00
     .340000000000D+01  .000000000000D+00 -.135041773319D-07  .106000000000D+03
     .648060000000D+05  .400000000000D+01
32 15  5 31 20  0  0.0 -.137094873935D-03  .966338120634D-11  .000000000000D+00
     .500000000000D+02 -.250000000000D+02  .481698636110D-08 -.595162283012D+00
    -.136159360409D-05  .112610078650D-01  .924617052078D-05  .515375856018D+04
     .720000000000D+05  .266358256340D-06 -.928346485220D+00 -.137835741043D-06
     .946812076512D+00  .194062500000D+03  .524751260511D-01 -.818569811004D-08
    -.605382359462D-09  .100000000000D+01  .184700000000D+04  .000000000000D+00
     .240000000000D+01  .000000000000D+00 -.372529029846D-08  .500000000000D+02
     .648060000000D+05  .400000000000D+01
13 15  5 31 19 59 44.0 -.119315460324D-03 -.341060513165D-11  .000000000000D+00
     .250000000000D+02  .108031250000D+03  .397230831973D-08 -.304542330393D+00
     .543892383575D-05  .509872578550D-02  .897422432899D-05  .515368802071D+04
     .719840000000D+05 -.763684511185D-07  .147635901948D+00 -.633299350739D-07
     .974581199196D+00  .213812500000D+03  .208899101815D+01 -.785282710177D-08
     .241081470582D-09  .100000000000D+01  .184700000000D+04  .000000000000D+00
     .240000000000D+01  .000000000000D+00 -.111758708954D-07  .250000000000D+02
     .649560000000D+05  .400000000000D+01
11 15  5 31 19 59 44.0 -.581954605877D-03 -.261479726760D-11  .000000000000D+00
     .120000000000D+02  .400625000000D+02  .647312677457D-08 -.100161489394D+01
     .225566327572D-05  .157980115619D-01  .631250441074D-05  .515373045921D+04
     .719840000000D+05 -.217929482460D-06 -.240227823834D+01  .288709998131D-06
     .893127816484D+00  .221156250000D+03  .140729935439D+01 -.915966725119D-08
     .329299430929D-09  .100000000000D+01  .184700000000D+04  .000000000000D+00
     .240000000000D+01  .000000000000D+00 -.121071934700D-07  .120000000000D+02
     .664560000000D+05  .400000000000D+01
31 15  5 31 19 59 44.0  .314306002110D-03 -.113686837722D-11  .000000000000D+00
     .000000000000D+00  .403437500000D+02  .464447917549D-08 -.123657831695D+01
     .180676579475D-05  .808642106131D-02  .141747295856D-05  .515378763008D+04
     .719840000000D+05 -.782310962677D-07  .111655264577D+01 -.111758708954D-06
     .974977904543D+00  .361906250000D+03 -.514193843015D+00 -.847463871700D-08
     .311798701953D-09  .100000000000D+01  .184700000000D+04  .000000000000D+00
     .240000000000D+01  .000000000000D+00 -.135041773319D-07  .000000000000D+00
     .666960000000D+05  .400000000000D+01
23 15  5 31 19 59 44.0 -.111918896437D-03 -.238742359215D-11  .000000000000D+00
     .300000000000D+01  .959375000000D+02  .450054460860D-08  .490572259858D+00
     .516511499882D-05  .102174065541D-01  .988692045212D-05  .515361624146D+04
     .719840000000D+05  .260770320892D-07  .410958324007D-01  .247731804848D-06
     .948903927943D+00  .183406250000D+03 -.267720299054D+01 -.806819321549D-08
     .125719522437D-09  .100000000000D+01  .184700000000D+04  .000000000000D+00
     .240000000000D+01  .000000000000D+00 -.200234353542D-07  .300000000000D+01
     .687060000000D+05  .400000000000D+01
11 15  5 31 21 59 44.0 -.581972766668D-03 -.261479726760D-11  .000000000000D+00
     .220000000000D+02  .355937500000D+02  .660063208568D-08  .485166584450D-01
     .210665166378D-05  .157976447372D-01  .650249421597D-05  .515372939682D+04
     .791840000000D+05 -.180676579475D-06 -.240234554866D+01  .502914190292D-07
     .893130154227D+00  .218531250000D+03  .140732968214D+01 -.930253034487D-08
     .395016454021D-09  .100000000000D+01  .184700000000D+04  .000000000000D+00
     .240000000000D+01  .000000000000D+00 -.121071934700D-07  .220000000000D+02
     .720060000000D+05  .400000000000D+01
23 15  5 31 21 59 44.0 -.111936125904D-03 -.238742359215D-11  .000000000000D+00
     .220000000000D+02  .105875000000D+03  .436161025000D-08  .154049217189D+01
     .562891364098D-05  .102196871303D-01  .111833214760D-04  .515362336159D+04
     .791840000000D+05 -.117346644402D-06  .410387654293D-01  .782310962677D-07
     .948904205898D+00  .158031250000D+03 -.267691072730D+01 -.802283418325D-08
    -.307155651409D-10  .100000000000D+01  .184700000000D+04  .000000000000D+00
     .240000000000D+01  .000000000000D+00 -.200234353542D-07  .220000000000D+02
     .720060000000D+05  .400000000000D+01
31 15  5 31 21 59 44.0  .314297620207D-03 -.113686837722D-11  .000000000000D+00
     .100000000000D+01  .378125000000D+02  .451947396852D-08 -.186423341783D+00
     .197440385818D-05  .808684143703D-02  .114366412163D-05  .515378867340D+04
     .791840000000D+05  .130385160446D-07  .111649185128D+01 -.128522515297D-06
     .974979901426D+00  .358906250000D+03 -.514237628153D+00 -.850999733269D-08
     .253939149013D-09  .100000000000D+01  .184700000000D+04  .000000000000D+00
     .240000000000D+01  .000000000000D+00 -.135041773319D-07  .100000000000D+01
     .720060000000D+05  .400000000000D+01
 1 15  5 31 22  0  0.0 -.487081706524D-05  .454747350886D-12  .000000000000D+00
     .280000000000D+02  .153125000000D+02  .500878006437D-08  .637205954666D+00
     .925734639168D-06  .428088312037D-02  .483728945255D-05  .515365554047D+04
     .792000000000D+05  .223517417908D-07 -.205123926141D+01  .279396772385D-07
     .961923530193D+00  .281687500000D+03  .382111947948D+00 -.829820279631D-08
     .764317551180D-10  .100000000000D+01  .184700000000D+04  .000000000000D+00
     .240000000000D+01  .000000000000D+00  .558793544769D-08  .280000000000D+02
     .720060000000D+05  .400000000000D+01
